[{"OBJECT_NAME":"PCSAT (NO-44)","OBJECT_ID":"2001-043C","EPOCH":"2026-03-09T13:24:02.117376","MEAN_MOTION":14.31912221,"ECCENTRICITY":0.0007015,"INCLINATION":67.0506,"RA_OF_ASC_NODE":141.9526,"ARG_OF_PERICENTER":265.3804,"MEAN_ANOMALY":94.6497,"EPHEMERIS_TYPE":0,"CLASSIFICATION_TYPE":"U","NORAD_CAT_ID":26931,"ELEMENT_SET_NO":999,"REV_AT_EPOCH":27618,"BSTAR":0.00011176,"MEAN_MOTION_DOT":2.17e-6,"MEAN_MOTION_DDOT":0},{"OBJECT_NAME":"CZ-6A DEB","OBJECT_ID":"2024-140PQ","EPOCH":"2026-03-09T14:43:06.993696","MEAN_MOTION":14.55705157,"ECCENTRICITY":0.0115903,"INCLINATION":89.019,"RA_OF_ASC_NODE":283.728,"ARG_OF_PERICENTER":246.1786,"MEAN_ANOMALY":112.724,"EPHEMERIS_TYPE":0,"CLASSIFICATION_TYPE":"U","NORAD_CAT_ID":61122,"ELEMENT_SET_NO":999,"REV_AT_EPOCH":8132,"BSTAR":0.00039305,"MEAN_MOTION_DOT":1.897e-5,"MEAN_MOTION_DDOT":0}]
